{"fetched_at":"2026-03-29T16:36:15Z","count":15609,"tles":[{"name":"O3B MPOWER F5","line1":"1 58346U 23175A   26087.55260673 -.00000029  00000+0  00000+0 0  9991","line2":"2 58346   0.0420   7.7471 0004230   7.8909 344.3705  5.00115677 45403","category":"Other"}]}